EUTELSAT 8 WEST B       
1 40875U 15039B   25211.90409266 -.00000061  00000+0  00000+0 0  9995
2 40875   0.0638   7.1727 0003649 121.5694 137.5043  1.00271231 36433
EUTELSAT 9B             
1 41310U 16005A   25211.90747267  .00000066  00000+0  00000+0 0  9994
2 41310   0.0330  65.9555 0001266  70.3219 148.1580  1.00272019 34892
EUTELSAT 65 WEST A      
1 41382U 16014A   25212.46374656 -.00000270  00000+0  00000+0 0  9991
2 41382   0.0493 355.8704 0002245 126.3314 288.8489  1.00274557 34433
EUTELSAT 117 WEST B     
1 41589U 16038B   25212.35905779 -.00000006  00000+0  00000+0 0  9997
2 41589   0.0037 201.7903 0000405 185.0521 294.6413  1.00269347 33481
EUTELSAT 172B           
1 42741U 17029B   25212.50772859  .00000001  00000+0  00000+0 0  9991
2 42741   0.0190 144.6570 0000185 304.2590 215.2295  1.00272731 30499
EUTELSAT 7C             
1 44334U 19034B   25211.90703934  .00000052  00000+0  00000+0 0  9996
2 44334   0.0732 190.3480 0003390 283.4694 168.4720  1.00271601  3614
EUTELSAT 5 WEST B       
1 44624U 19067A   25212.12128166 -.00000037  00000+0  00000+0 0  9991
2 44624   0.1045 303.8687 0003031 184.8534 218.9348  1.00270224 21216
EUTELSAT KONNECT        
1 45027U 20005B   25211.90712601  .00000053  00000+0  00000+0 0  9998
2 45027   0.0566  93.0842 0001157  94.1302  95.3201  1.00269886 21100
